[{"OBJECT_NAME":"SDGSAT 1","OBJECT_ID":"2021-100A","EPOCH":"2026-03-09T22:25:47.765568","MEAN_MOTION":15.19363772,"ECCENTRICITY":0.00064261,"INCLINATION":97.2774,"RA_OF_ASC_NODE":119.531,"ARG_OF_PERICENTER":284.1748,"MEAN_ANOMALY":75.8773,"EPHEMERIS_TYPE":0,"CLASSIFICATION_TYPE":"U","NORAD_CAT_ID":49387,"ELEMENT_SET_NO":999,"REV_AT_EPOCH":24084,"BSTAR":0.00015779611,"MEAN_MOTION_DOT":3.272e-5,"MEAN_MOTION_DDOT":0},{"OBJECT_NAME":"LYRA-1","OBJECT_ID":"2025-009BH","EPOCH":"2026-03-09T17:26:12.542784","MEAN_MOTION":15.16922568,"ECCENTRICITY":0.00098251,"INCLINATION":97.4045,"RA_OF_ASC_NODE":145.5025,"ARG_OF_PERICENTER":171.7868,"MEAN_ANOMALY":188.3529,"EPHEMERIS_TYPE":0,"CLASSIFICATION_TYPE":"U","NORAD_CAT_ID":62664,"ELEMENT_SET_NO":999,"REV_AT_EPOCH":6333,"BSTAR":0.00059700149,"MEAN_MOTION_DOT":0.00011728,"MEAN_MOTION_DDOT":0}]
